{"type": "FeatureCollection", "features": [ {"type": "Feature", "properties": {"norad_id": 34792, "name": "COSMOS 2251 DEB", "group": "cosmos-2251-debris", "lat": -70.40554146078023, "lon": 89.77507234141216, "alt_km": 706.4029604236339, "timestamp": "2025-12-26T14:28:48.098262+00:00", "meta": {"OBJECT_NAME": "COSMOS 2251 DEB", "OBJECT_ID": "1993-036AAV", "EPOCH": "2025-12-26T05:12:37.475424", "MEAN_MOTION": 14.56070955, "ECCENTRICITY": 0.00123671, "INCLINATION": 74.0179, "RA_OF_ASC_NODE": 144.128, "ARG_OF_PERICENTER": 239.231, "MEAN_ANOMALY": 178.4136, "EPHEMERIS_TYPE": 0, "CLASSIFICATION_TYPE": "U", "NORAD_CAT_ID": 34792, "ELEMENT_SET_NO": 999, "REV_AT_EPOCH": 87846, "BSTAR": 0.0011841057, "MEAN_MOTION_DOT": 5.199e-05, "MEAN_MOTION_DDOT": 0}, "tle": {"line1": "1 34792U 93036AAV 25360.21710041  .00005199  00000+0  11841-2 0  9998", "line2": "2 34792  74.0179 144.1280 0012367 239.2310 178.4136 14.56070955878469"}}, "geometry": {"type": "Point", "coordinates": [89.77507234141216, -70.40554146078023]}}, {"type": "Feature", "properties": {"norad_id": 34793, "name": "COSMOS 2251 DEB", "group": "cosmos-2251-debris", "lat": -73.49523253009968, "lon": 149.22644784406037, "alt_km": 776.8200820137899, "timestamp": "2025-12-26T14:28:48.098272+00:00", "meta": {"OBJECT_NAME": "COSMOS 2251 DEB", "OBJECT_ID": "1993-036AAW", "EPOCH": "2025-12-25T19:24:04.961664", "MEAN_MOTION": 14.38664126, "ECCENTRICITY": 0.00508769, "INCLINATION": 74.0015, "RA_OF_ASC_NODE": 226.2232, "ARG_OF_PERICENTER": 17.0479, "MEAN_ANOMALY": 102.0932, "EPHEMERIS_TYPE": 0, "CLASSIFICATION_TYPE": "U", "NORAD_CAT_ID": 34793, "ELEMENT_SET_NO": 999, "REV_AT_EPOCH": 87518, "BSTAR": 0.00021915048, "MEAN_MOTION_DOT": 6.55e-06, "MEAN_MOTION_DDOT": 0}, "tle": {"line1": "1 34793U 93036AAW 25359.80839076  .00000655  00000+0  21915-3 0  9998", "line2": "2 34793  74.0015 226.2232 0050876  17.0479 102.0932 14.38664126875185"}}, "geometry": {"type": "Point", "coordinates": [149.22644784406037, -73.49523253009968]}}, {"type": "Feature", "properties": {"norad_id": 34796, "name": "COSMOS 2251 DEB", "group": "cosmos-2251-debris", "lat": 28.845052065783403, "lon": 1.2753487575252052, "alt_km": 782.022064039139, "timestamp": "2025-12-26T14:28:48.098282+00:00", "meta": {"OBJECT_NAME": "COSMOS 2251 DEB", "OBJECT_ID": "1993-036AAZ", "EPOCH": "2025-12-25T13:03:59.133024", "MEAN_MOTION": 14.48745914, "ECCENTRICITY": 0.0100284, "INCLINATION": 74.0282, "RA_OF_ASC_NODE": 192.3362, "ARG_OF_PERICENTER": 291.6358, "MEAN_ANOMALY": 98.4563, "EPHEMERIS_TYPE": 0, "CLASSIFICATION_TYPE": "U", "NORAD_CAT_ID": 34796, "ELEMENT_SET_NO": 999, "REV_AT_EPOCH": 88213, "BSTAR": 0.00055203, "MEAN_MOTION_DOT": 2.189e-05, "MEAN_MOTION_DDOT": 0}, "tle": {"line1": "1 34796U 93036AAZ 25359.54443441  .00002189  00000+0  55203-3 0  9990", "line2": "2 34796  74.0282 192.3362 0100284 291.6358  98.4563 14.48745914882133"}}, "geometry": {"type": "Point", "coordinates": [1.2753487575252052, 28.845052065783403]}}, {"type": "Feature", "properties": {"norad_id": 34797, "name": "COSMOS 2251 DEB", "group": "cosmos-2251-debris", "lat": -14.781470493586523, "lon": 69.80740725559667, "alt_km": 800.2831999290793, "timestamp": "2025-12-26T14:28:48.098292+00:00", "meta": {"OBJECT_NAME": "COSMOS 2251 DEB", "OBJECT_ID": "1993-036ABA", "EPOCH": "2025-12-22T12:22:54.757056", "MEAN_MOTION": 14.42950692, "ECCENTRICITY": 0.00710542, "INCLINATION": 73.9783, "RA_OF_ASC_NODE": 81.7691, "ARG_OF_PERICENTER": 193.6898, "MEAN_ANOMALY": 166.2334, "EPHEMERIS_TYPE": 0, "CLASSIFICATION_TYPE": "U", "NORAD_CAT_ID": 34797, "ELEMENT_SET_NO": 999, "REV_AT_EPOCH": 87556, "BSTAR": 0.0021692417, "MEAN_MOTION_DOT": 7.461e-05, "MEAN_MOTION_DDOT": 0}, "tle": {"line1": "1 34797U 93036ABA 25356.51591154  .00007461  00000+0  21692-2 0  9992", "line2": "2 34797  73.9783  81.7691 0071054 193.6898 166.2334 14.42950692875560"}}, "geometry": {"type": "Point", "coordinates": [69.80740725559667, -14.781470493586523]}}, {"type": "Feature", "properties": {"norad_id": 34814, "name": "COSMOS 2251 DEB", "group": "cosmos-2251-debris", "lat": 27.416803178966102, "lon": -51.651723850363375, "alt_km": 803.7382319079052, "timestamp": "2025-12-26T14:28:48.098302+00:00", "meta": {"OBJECT_NAME": "COSMOS 2251 DEB", "OBJECT_ID": "1993-036ABD", "EPOCH": "2025-12-23T04:46:16.254336", "MEAN_MOTION": 14.3693492, "ECCENTRICITY": 0.00554769, "INCLINATION": 73.8962, "RA_OF_ASC_NODE": 306.0405, "ARG_OF_PERICENTER": 193.3771, "MEAN_ANOMALY": 230.9861, "EPHEMERIS_TYPE": 0, "CLASSIFICATION_TYPE": "U", "NORAD_CAT_ID": 34814, "ELEMENT_SET_NO": 999, "REV_AT_EPOCH": 87483, "BSTAR": 0.00068608274, "MEAN_MOTION_DOT": 2.041e-05, "MEAN_MOTION_DDOT": 0}, "tle": {"line1": "1 34814U 93036ABD 25357.19879924  .00002041  00000+0  68608-3 0  9999", "line2": "2 34814  73.8962 306.0405 0055476 193.3771 230.9861 14.36934920874833"}}, "geometry": {"type": "Point", "coordinates": [-51.651723850363375, 27.416803178966102]}}, {"type": "Feature", "properties": {"norad_id": 34815, "name": "COSMOS 2251 DEB", "group": "cosmos-2251-debris", "lat": 73.93442935851026, "lon": -48.877125868981324, "alt_km": 667.4007922182464, "timestamp": "2025-12-26T14:28:48.098313+00:00", "meta": {"OBJECT_NAME": "COSMOS 2251 DEB", "OBJECT_ID": "1993-036ABE", "EPOCH": "2025-12-26T01:04:19.230528", "MEAN_MOTION": 14.78457194, "ECCENTRICITY": 0.00586768, "INCLINATION": 74.044, "RA_OF_ASC_NODE": 215.6734, "ARG_OF_PERICENTER": 281.9986, "MEAN_ANOMALY": 77.4616, "EPHEMERIS_TYPE": 0, "CLASSIFICATION_TYPE": "U", "NORAD_CAT_ID": 34815, "ELEMENT_SET_NO": 999, "REV_AT_EPOCH": 88824, "BSTAR": 0.00072445871, "MEAN_MOTION_DOT": 5.407e-05, "MEAN_MOTION_DDOT": 0}, "tle": {"line1": "1 34815U 93036ABE 25360.04466702  .00005407  00000+0  72446-3 0  9998", "line2": "2 34815  74.0440 215.6734 0058676 281.9986  77.4616 14.78457194888246"}}, "geometry": {"type": "Point", "coordinates": [-48.877125868981324, 73.93442935851026]}}, {"type": "Feature", "properties": {"norad_id": 34816, "name": "COSMOS 2251 DEB", "group": "cosmos-2251-debris", "lat": 2.661340070524157, "lon": -60.26706471985699, "alt_km": 768.2353096172974, "timestamp": "2025-12-26T14:28:48.098324+00:00", "meta": {"OBJECT_NAME": "COSMOS 2251 DEB", "OBJECT_ID": "1993-036ABF", "EPOCH": "2025-12-25T01:06:13.254336", "MEAN_MOTION": 13.58358364, "ECCENTRICITY": 0.03729236, "INCLINATION": 73.8874, "RA_OF_ASC_NODE": 123.043, "ARG_OF_PERICENTER": 185.3949, "MEAN_ANOMALY": 299.3527, "EPHEMERIS_TYPE": 0, "CLASSIFICATION_TYPE": "U", "NORAD_CAT_ID": 34816, "ELEMENT_SET_NO": 999, "REV_AT_EPOCH": 82950, "BSTAR": 0.0014772062, "MEAN_MOTION_DOT": 1.67e-05, "MEAN_MOTION_DDOT": 0}, "tle": {"line1": "1 34816U 93036ABF 25359.04598674  .00001670  00000+0  14772-2 0  9996", "line2": "2 34816  73.8874 123.0430 0372923 185.3949 299.3527 13.58358364829506"}}, "geometry": {"type": "Point", "coordinates": [-60.26706471985699, 2.661340070524157]}}, {"type": "Feature", "properties": {"norad_id": 34818, "name": "COSMOS 2251 DEB", "group": "cosmos-2251-debris", "lat": 69.39780596399613, "lon": 41.85794028846515, "alt_km": 769.9634076769562, "timestamp": "2025-12-26T14:28:48.098334+00:00", "meta": {"OBJECT_NAME": "COSMOS 2251 DEB", "OBJECT_ID": "1993-036ABH", "EPOCH": "2025-12-26T04:41:15.553824", "MEAN_MOTION": 14.36982494, "ECCENTRICITY": 0.00246969, "INCLINATION": 74.0365, "RA_OF_ASC_NODE": 272.1995, "ARG_OF_PERICENTER": 344.861, "MEAN_ANOMALY": 168.1819, "EPHEMERIS_TYPE": 0, "CLASSIFICATION_TYPE": "U", "NORAD_CAT_ID": 34818, "ELEMENT_SET_NO": 999, "REV_AT_EPOCH": 87563, "BSTAR": 0.00018428348, "MEAN_MOTION_DOT": 5.22e-06, "MEAN_MOTION_DDOT": 0}, "tle": {"line1": "1 34818U 93036ABH 25360.19531891  .00000522  00000+0  18428-3 0  9992", "line2": "2 34818  74.0365 272.1995 0024696 344.8610 168.1819 14.36982494875632"}}, "geometry": {"type": "Point", "coordinates": [41.85794028846515, 69.39780596399613]}}, {"type": "Feature", "properties": {"norad_id": 34819, "name": "COSMOS 2251 DEB", "group": "cosmos-2251-debris", "lat": -63.14467513816739, "lon": 81.53553797499032, "alt_km": 684.8931999921315, "timestamp": "2025-12-26T14:28:48.098344+00:00", "meta": {"OBJECT_NAME": "COSMOS 2251 DEB", "OBJECT_ID": "1993-036ABJ", "EPOCH": "2025-12-25T01:52:59.959200", "MEAN_MOTION": 14.64149943, "ECCENTRICITY": 0.00152489, "INCLINATION": 74.0188, "RA_OF_ASC_NODE": 118.9364, "ARG_OF_PERICENTER": 214.0486, "MEAN_ANOMALY": 323.4712, "EPHEMERIS_TYPE": 0, "CLASSIFICATION_TYPE": "U", "NORAD_CAT_ID": 34819, "ELEMENT_SET_NO": 999, "REV_AT_EPOCH": 88409, "BSTAR": 0.0016705691, "MEAN_MOTION_DOT": 8.78e-05, "MEAN_MOTION_DDOT": 0}, "tle": {"line1": "1 34819U 93036ABJ 25359.07847175  .00008780  00000+0  16706-2 0  9993", "line2": "2 34819  74.0188 118.9364 0015248 214.0486 323.4712 14.64149943884098"}}, "geometry": {"type": "Point", "coordinates": [81.53553797499032, -63.14467513816739]}}, {"type": "Feature", "properties": {"norad_id": 34823, "name": "COSMOS 2251 DEB", "group": "cosmos-2251-debris", "lat": -62.352147105377455, "lon": -70.85415129652414, "alt_km": 713.9773246575569, "timestamp": "2025-12-26T14:28:48.098355+00:00", "meta": {"OBJECT_NAME": "COSMOS 2251 DEB", "OBJECT_ID": "1993-036ABN", "EPOCH": "2025-12-24T15:09:15.666048", "MEAN_MOTION": 14.54999461, "ECCENTRICITY": 0.01538489, "INCLINATION": 74.0415, "RA_OF_ASC_NODE": 79.7679, "ARG_OF_PERICENTER": 161.572, "MEAN_ANOMALY": 199.1106, "EPHEMERIS_TYPE": 0, "CLASSIFICATION_TYPE": "U", "NORAD_CAT_ID": 34823, "ELEMENT_SET_NO": 999, "REV_AT_EPOCH": 88554, "BSTAR": 0.00054717068, "MEAN_MOTION_DOT": 2.731e-05, "MEAN_MOTION_DDOT": 0}, "tle": {"line1": "1 34823U 93036ABN 25358.63143132  .00002731  00000+0  54717-3 0  9996", "line2": "2 34823  74.0415  79.7679 0153848 161.5720 199.1106 14.54999461885548"}}, "geometry": {"type": "Point", "coordinates": [-70.85415129652414, -62.352147105377455]}}]}